COMMENT,ORIGINATOR,NORAD_CAT_ID,OBJECT_NAME,OBJECT_TYPE,CLASSIFICATION_TYPE,INTLDES,EPOCH,EPOCH_MICROSECONDS,MEAN_MOTION,ECCENTRICITY,INCLINATION,RA_OF_ASC_NODE,ARG_OF_PERICENTER,MEAN_ANOMALY,EPHEMERIS_TYPE,ELEMENT_SET_NO,REV_AT_EPOCH,BSTAR,MEAN_MOTION_DOT,MEAN_MOTION_DDOT,FILE,TLE_LINE0,TLE_LINE1,TLE_LINE2,OBJECT_ID,OBJECT_NUMBER,SEMIMAJOR_AXIS,PERIOD,APOGEE,PERIGEE,DECAYED,date
GENERATED VIA SPACETRACK.ORG API,18 SPCS,48883,SPACEBEE-100,PAYLOAD,U,21059E,2023/4/11 8:37,969664,15.27374136,0.0007866,97.585,236.7843,151.0998,209.0677,0,999,9917,0.0012761,0.00034276,0,3885783,0 SPACEBEE-100,1 48883U 21059E   23101.35954826  .00034276  00000-0  12761-2 0  9998,2 48883  97.5850 236.7843 0007866 151.0998 209.0677 15.27374136 99176,2021-059E,48883,6861.803,94.279,489.065,478.27,0,
GENERATED VIA SPACETRACK.ORG API,18 SPCS,48883,SPACEBEE-100,PAYLOAD,U,21059E,2023/4/11 14:55,357504,15.27395537,0.0007864,97.585,237.0507,150.246,209.9227,0,999,9921,0.0013668,0.00036754,0,3885919,0 SPACEBEE-100,1 48883U 21059E   23101.62160136  .00036754  00000-0  13668-2 0  9991,2 48883  97.5850 237.0507 0007864 150.2460 209.9227 15.27395537 99213,2021-059E,48883,6861.739,94.278,489,478.207,0,
GENERATED VIA SPACETRACK.ORG API,18 SPCS,48883,SPACEBEE-100,PAYLOAD,U,21059E,2023/4/12 14:30,77472,15.27466028,0.0007798,97.5848,238.05,147.3811,212.7911,0,999,9936,0.0013042,0.00035134,0,3886349,0 SPACEBEE-100,1 48883U 21059E   23102.60427173  .00035134  00000-0  13042-2 0  9994,2 48883  97.5848 238.0500 0007798 147.3811 212.7911 15.27466028 99369,2021-059E,48883,6861.527,94.274,488.743,478.042,0,
GENERATED VIA SPACETRACK.ORG API,18 SPCS,48883,SPACEBEE-100,PAYLOAD,U,21059E,2023/4/13 7:47,521760,15.275217,0.0007729,97.5849,238.7829,144.9838,215.191,0,999,9947,0.001393,0.00037607,0,3886564,0 SPACEBEE-100,1 48883U 21059E   23103.32486715  .00037607  00000-0  13930-2 0  9994,2 48883  97.5849 238.7829 0007729 144.9838 215.1910 15.27521700 99474,2021-059E,48883,6861.361,94.27,488.529,477.923,0,
GENERATED VIA SPACETRACK.ORG API,18 SPCS,48883,SPACEBEE-100,PAYLOAD,U,21059E,2023/4/13 20:22,704416,15.27562019,0.0007768,97.5849,239.316,143.0245,217.1531,0,999,9955,0.0013678,0.00036967,0,3886811,0 SPACEBEE-100,1 48883U 21059E   23103.84892019  .00036967  00000-0  13678-2 0  9996,2 48883  97.5849 239.3160 0007768 143.0245 217.1531 15.27562019 99552,2021-059E,48883,6861.24,94.268,488.435,477.775,0,
GENERATED VIA SPACETRACK.ORG API,18 SPCS,48883,SPACEBEE-100,PAYLOAD,U,21059E,2023/4/14 8:57,574656,15.27608651,0.0007759,97.5848,239.8489,141.0514,219.1285,0,999,9963,0.001546,0.0004188,0,3887333,0 SPACEBEE-100,1 48883U 21059E   23104.37295804  .00041880  00000-0  15460-2 0  9995,2 48883  97.5848 239.8489 0007759 141.0514 219.1285 15.27608651 99637,2021-059E,48883,6861.1,94.265,488.289,477.642,0,
GENERATED VIA SPACETRACK.ORG API,18 SPCS,48883,SPACEBEE-100,PAYLOAD,U,21059E,2023/4/15 8:31,987808,15.27698501,0.0007714,97.5846,240.8484,137.7809,222.4025,0,999,9978,0.001677,0.00045581,0,3887974,0 SPACEBEE-100,1 48883U 21059E   23105.35548597  .00045581  00000-0  16770-2 0  9991,2 48883  97.5846 240.8484 0007714 137.7809 222.4025 15.27698501 99780,2021-059E,48883,6860.831,94.259,487.989,477.404,0,
GENERATED VIA SPACETRACK.ORG API,18 SPCS,48883,SPACEBEE-100,PAYLOAD,U,21059E,2023/4/15 21:06,790336,15.27747591,0.0007668,97.5847,241.3817,136.1859,223.9989,0,999,9986,0.0016611,0.00045213,0,3888171,0 SPACEBEE-100,1 48883U 21059E   23105.87947674  .00045213  00000-0  16611-2 0  9993,2 48883  97.5847 241.3817 0007668 136.1859 223.9989 15.27747591 99861,2021-059E,48883,6860.684,94.256,487.81,477.289,0,
GENERATED VIA SPACETRACK.ORG API,18 SPCS,48883,SPACEBEE-100,PAYLOAD,U,21059E,2023/4/16 3:23,630432,15.27771876,0.00076,97.5846,241.648,135.4858,224.6993,0,999,9990,0.0016949,0.00046174,0,3888313,0 SPACEBEE-100,1 48883U 21059E   23106.14146563  .00046174  00000-0  16949-2 0  9993,2 48883  97.5846 241.6480 0007600 135.4858 224.6993 15.27771876 99907,2021-059E,48883,6860.612,94.255,487.691,477.263,0,
GENERATED VIA SPACETRACK.ORG API,18 SPCS,48883,SPACEBEE-100,PAYLOAD,U,21059E,2023/4/16 8:06,277440,15.27790353,0.0007548,97.5847,241.848,134.941,225.2442,0,999,9993,0.0016606,0.00045257,0,3888626,0 SPACEBEE-100,1 48883U 21059E   23106.33795460  .00045257  00000-0  16606-2 0  9991,2 48883  97.5847 241.8480 0007548 134.9410 225.2442 15.27790353 99939,2021-059E,48883,6860.556,94.254,487.6,477.243,0,
GENERATED VIA SPACETRACK.ORG API,18 SPCS,48883,SPACEBEE-100,PAYLOAD,U,21059E,2023/4/16 20:41,292704,15.27841434,0.0007516,97.5849,242.3811,133.1848,227.002,0,999,10001,0.0016765,0.00045765,0,3888799,0 SPACEBEE-100,1 48883U 21059E   23106.86191311  .00045765  00000-0  16765-2 0  9994,2 48883  97.5849 242.3811 0007516 133.1848 227.0020 15.27841434100017,2021-059E,48883,6860.403,94.251,487.425,477.112,0,
GENERATED VIA SPACETRACK.ORG API,18 SPCS,48883,SPACEBEE-100,PAYLOAD,U,21059E,2023/4/17 4:32,317952,15.27872126,0.0007492,97.585,242.7143,131.9856,228.2022,0,999,10006,0.0017165,0.00046909,0,3888921,0 SPACEBEE-100,1 48883U 21059E   23107.18937868  .00046909  00000-0  17165-2 0  9991,2 48883  97.5850 242.7143 0007492 131.9856 228.2022 15.27872126100061,2021-059E,48883,6860.312,94.249,487.316,477.037,0,
GENERATED VIA SPACETRACK.ORG API,18 SPCS,48883,SPACEBEE-100,PAYLOAD,U,21059E,2023/4/17 7:41,359744,15.278852,0.0007482,97.585,242.8476,131.5979,228.5903,0,999,10008,0.0017144,0.0004687,0,3889215,0 SPACEBEE-100,1 48883U 21059E   23107.32036296  .00046870  00000-0  17144-2 0  9996,2 48883  97.5850 242.8476 0007482 131.5979 228.5903 15.27885200100082,2021-059E,48883,6860.272,94.248,487.27,477.005,0,
GENERATED VIA SPACETRACK.ORG API,18 SPCS,48883,SPACEBEE-100,PAYLOAD,U,21059E,2023/4/17 21:50,18784,15.27939942,0.0007487,97.5854,243.4474,129.4167,230.7736,0,999,10017,0.0017261,0.00047272,0,3889391,0 SPACEBEE-100,1 48883U 21059E   23107.90978031  .00047272  00000-0  17261-2 0  9999,2 48883  97.5854 243.4474 0007487 129.4167 230.7736 15.27939942100173,2021-059E,48883,6860.109,94.245,487.11,476.837,0,
GENERATED VIA SPACETRACK.ORG API,18 SPCS,48883,SPACEBEE-100,PAYLOAD,U,21059E,2023/4/18 8:50,658848,15.27978557,0.0007476,97.5855,243.914,127.5753,232.6165,0,999,10024,0.0016192,0.00044374,0,3889562,0 SPACEBEE-100,1 48883U 21059E   23108.36820207  .00044374  00000-0  16192-2 0  9993,2 48883  97.5855 243.9140 0007476 127.5753 232.6165 15.27978557100247,2021-059E,48883,6859.993,94.242,486.986,476.729,0,
GENERATED VIA SPACETRACK.ORG API,18 SPCS,48883,SPACEBEE-100,PAYLOAD,U,21059E,2023/4/18 8:50,658848,15.27978557,0.0007476,97.5855,243.914,127.5753,232.6165,0,999,10024,0.0016192,0.00044374,0,3889684,0 SPACEBEE-100,1 48883U 21059E   23108.36820207  .00044374  00000-0  16192-2 0  9993,2 48883  97.5855 243.9140 0007476 127.5753 232.6165 15.27978557100247,2021-059E,48883,6859.993,94.242,486.986,476.729,0,
GENERATED VIA SPACETRACK.ORG API,18 SPCS,48883,SPACEBEE-100,PAYLOAD,U,21059E,2023/4/19 8:24,589152,15.28068809,0.00074,97.5857,244.9138,124.2381,235.956,0,999,10039,0.0017605,0.00048411,0,3890383,0 SPACEBEE-100,1 48883U 21059E   23109.35049293  .00048411  00000-0  17605-2 0  9997,2 48883  97.5857 244.9138 0007400 124.2381 235.9560 15.28068809100397,2021-059E,48883,6859.723,94.237,486.664,476.512,0,
GENERATED VIA SPACETRACK.ORG API,18 SPCS,48883,SPACEBEE-100,PAYLOAD,U,21059E,2023/4/20 7:59,543680,15.28151587,0.0007281,97.5861,245.9133,121.0449,239.1506,0,999,10054,0.0014373,0.00039562,0,3890827,0 SPACEBEE-100,1 48883U 21059E   23110.33272620  .00039562  00000-0  14373-2 0  9995,2 48883  97.5861 245.9133 0007281 121.0449 239.1506 15.28151587100544,2021-059E,48883,6859.475,94.231,486.334,476.346,0,
GENERATED VIA SPACETRACK.ORG API,18 SPCS,48883,SPACEBEE-100,PAYLOAD,U,21059E,2023/4/20 7:59,543680,15.28151587,0.0007281,97.5861,245.9133,121.0449,239.1506,0,999,10054,0.0014373,0.00039562,0,3890979,0 SPACEBEE-100,1 48883U 21059E   23110.33272620  .00039562  00000-0  14373-2 0  9995,2 48883  97.5861 245.9133 0007281 121.0449 239.1506 15.28151587100544,2021-059E,48883,6859.475,94.231,486.334,476.346,0,
GENERATED VIA SPACETRACK.ORG API,18 SPCS,48883,SPACEBEE-100,PAYLOAD,U,21059E,2023/4/21 4:24,650656,15.28216107,0.0007324,97.5866,246.7799,117.9981,242.2,0,999,10067,0.001362,0.00037549,0,3891529,0 SPACEBEE-100,1 48883U 21059E   23111.18395429  .00037549  00000-0  13620-2 0  9999,2 48883  97.5866 246.7799 0007324 117.9981 242.2000 15.28216107100677,2021-059E,48883,6859.282,94.228,486.171,476.123,0,
GENERATED VIA SPACETRACK.ORG API,18 SPCS,48883,SPACEBEE-100,PAYLOAD,U,21059E,2023/4/21 9:07,387552,15.28230193,0.0007295,97.5867,246.98,117.474,242.7242,0,999,10070,0.0012857,0.00035446,0,3891643,0 SPACEBEE-100,1 48883U 21059E   23111.38038643  .00035446  00000-0  12857-2 0  9998,2 48883  97.5867 246.9800 0007295 117.4740 242.7242 15.28230193100706,2021-059E,48883,6859.24,94.227,486.109,476.101,0,
GENERATED VIA SPACETRACK.ORG API,18 SPCS,48883,SPACEBEE-100,PAYLOAD,U,21059E,2023/4/21 9:07,387552,15.28230193,0.0007295,97.5867,246.98,117.474,242.7242,0,999,10070,0.0012857,0.00035446,0,3891716,0 SPACEBEE-100,1 48883U 21059E   23111.38038643  .00035446  00000-0  12857-2 0  9998,2 48883  97.5867 246.9800 0007295 117.4740 242.7242 15.28230193100706,2021-059E,48883,6859.24,94.227,486.109,476.101,0,
GENERATED VIA SPACETRACK.ORG API,18 SPCS,48883,SPACEBEE-100,PAYLOAD,U,21059E,2023/4/22 8:42,576800,15.28308666,0.0007264,97.5872,247.9799,114.1971,246.0028,0,999,10085,0.0014361,0.00039719,0,3892196,0 SPACEBEE-100,1 48883U 21059E   23112.36251825  .00039719  00000-0  14361-2 0  9995,2 48883  97.5872 247.9799 0007264 114.1971 246.0028 15.28308666100852,2021-059E,48883,6859.005,94.222,485.852,475.888,0,
